TRANSPORTER-12 OBJECT AZ
1 62656U 25009AZ  26068.71026235  .00016057  00000+0  54903-3 0  9991
2 62656  97.3981 151.9913 0000987  45.3581 314.7740 15.30349724 63792
STARLINK-32661          
1 62899U 25024W   26068.40879765  .00024191  00000+0  88570-3 0  9992
2 62899  42.9940 326.8932 0000085 165.8830 194.2024 15.27581087 62229
